[{"OBJECT_NAME":"STARLINK-5594","OBJECT_ID":"2023-028B","EPOCH":"2026-03-09T20:52:36.158880","MEAN_MOTION":14.98332681,"ECCENTRICITY":0.00024521,"INCLINATION":69.9991,"RA_OF_ASC_NODE":244.1407,"ARG_OF_PERICENTER":272.6317,"MEAN_ANOMALY":87.4561,"EPHEMERIS_TYPE":0,"CLASSIFICATION_TYPE":"U","NORAD_CAT_ID":55742,"ELEMENT_SET_NO":999,"REV_AT_EPOCH":16606,"BSTAR":-0.00010407127,"MEAN_MOTION_DOT":-1.335e-5,"MEAN_MOTION_DDOT":0},{"OBJECT_NAME":"PEGASUS R\/B","OBJECT_ID":"2003-004B","EPOCH":"2026-03-09T09:44:27.528288","MEAN_MOTION":14.94290093,"ECCENTRICITY":0.00174311,"INCLINATION":40.0025,"RA_OF_ASC_NODE":325.3337,"ARG_OF_PERICENTER":130.6865,"MEAN_ANOMALY":229.5444,"EPHEMERIS_TYPE":0,"CLASSIFICATION_TYPE":"U","NORAD_CAT_ID":27652,"ELEMENT_SET_NO":999,"REV_AT_EPOCH":25440,"BSTAR":0.00025016623,"MEAN_MOTION_DOT":2.598e-5,"MEAN_MOTION_DDOT":0}]
